OBJECT_NAME,OBJECT_ID,EPOCH,MEAN_MOTION,ECCENTRICITY,INCLINATION,RA_OF_ASC_NODE,ARG_OF_PERICENTER,MEAN_ANOMALY,EPHEMERIS_TYPE,CLASSIFICATION_TYPE,NORAD_CAT_ID,ELEMENT_SET_NO,REV_AT_EPOCH,BSTAR,MEAN_MOTION_DOT,MEAN_MOTION_DDOT
M2 PATHFINDER,2020-037E,2026-07-20T11:53:15.873504,15.04802029,.0012419,97.8142,33.1041,45.5834,314.6406,0,U,45727,999,33050,.92943615E-4,.1249E-4,0
NETSAT-4,2020-068U,2026-07-20T11:49:16.891104,15.44867524,.00054059,97.8611,212.4367,174.8181,185.3124,0,U,46504,999,32091,.23466124E-3,.10922E-3,0
NETSAT-3,2020-068V,2026-07-20T11:01:02.505792,15.43720096,.00044667,97.8662,210.5768,189.6822,170.4339,0,U,46505,999,32081,.25041468E-3,.11215E-3,0
NETSAT-1,2020-068W,2026-07-20T10:42:53.464032,15.35317638,.00027825,97.8764,204.4930,232.1394,127.9596,0,U,46506,999,32040,.20395693E-3,.6906E-4,0
NETSAT-2,2020-068X,2026-07-20T06:56:21.168096,15.47303503,.00028987,97.8622,212.2399,187.9093,172.2110,0,U,46507,999,32085,.26687546E-3,.13521E-3,0
GREENCUBE (IO-117),2022-080E,2026-07-20T04:18:04.419648,6.42583323,.00090888,70.1400,286.7734,282.4177,77.5466,0,U,53109,999,9418,0,-.3E-7,0
SITRO-AIS 5 (KATYS),2023-091L,2026-07-20T13:25:28.155360,15.30133467,.00100861,97.5037,265.7896,352.9344,7.1752,0,U,57176,999,16944,.23144507E-3,.668E-4,0
SITRO-AIS 6 (CHIRKIN),2023-091AC,2026-07-20T13:13:33.109824,15.26494165,.0010624,97.5045,264.7203,357.5529,2.5656,0,U,57192,999,16937,.21587354E-3,.5567E-4,0
SITRO-AIS 8 (ANOKHIN),2023-091AD,2026-07-20T13:57:53.274240,15.32940698,.00089525,97.5033,267.5405,347.7567,12.3456,0,U,57193,999,16956,.2560158E-3,.8075E-4,0
SITRO-AIS 7 (FARTUSHNIY),2023-091AE,2026-07-20T13:28:09.176448,15.26166478,.00105838,97.5041,264.5376,358.8100,1.3112,0,U,57194,999,16936,.20726206E-3,.5289E-4,0
SITRO-AIS 10 (BURDAEV),2023-091AK,2026-07-20T14:22:52.646016,15.39750634,.00044835,97.5057,272.9666,316.7421,43.3472,0,U,57199,999,16990,.3156821E-3,.12415E-3,0
SITRO-AIS 9 (SHCHUKIN),2023-091AM,2026-07-20T13:43:02.507520,15.39231425,.00047455,97.5056,272.6412,317.4690,42.6187,0,U,57201,999,16988,.3085781E-3,.11928E-3,0
SITRO-AIS 12 (SMIRENNIY),2023-091AQ,2026-07-20T13:20:22.088544,15.39527610,.00043658,97.5069,273.1134,309.1884,50.8973,0,U,57204,999,16990,.31400809E-3,.12258E-3,0
SITRO-AIS 11 (SHEFFER),2023-091AU,2026-07-20T13:26:05.002368,15.39975028,.00042973,97.5068,273.3855,308.5936,51.4925,0,U,57208,999,16992,.31415288E-3,.12446E-3,0
SITRO-AIS 25,2024-039R,2026-07-20T14:33:07.364736,14.93661500,.0143253,95.3888,258.0568,210.3991,148.8873,0,U,59066,999,12971,.12079753E-3,.1527E-4,0
SITRO-AIS 26,2024-039S,2026-07-20T14:41:44.720160,14.93452181,.01435922,95.3889,257.9517,210.9974,148.2721,0,U,59067,999,12970,.11850272E-3,.149E-4,0
SITRO-AIS 27,2024-039T,2026-07-20T13:45:19.433376,14.93878131,.01427021,95.3893,258.2122,209.6616,149.6464,0,U,59068,999,12972,.17346113E-3,.2219E-4,0
SITRO-AIS 28,2024-039U,2026-07-20T14:48:12.801312,14.93911163,.01425903,95.3893,258.2913,209.3371,149.9796,0,U,59071,999,12973,.12742805E-3,.1621E-4,0
GRBBETA,2024-128C,2026-07-20T03:16:34.742208,15.06828268,.00364277,61.9889,100.6458,141.7749,218.5938,0,U,60237,999,11123,.13754481E-3,.1868E-4,0
OOV-CUBE (TUBSAT-30),2024-128F,2026-07-20T10:57:40.768704,15.02886563,.00404248,61.9942,109.5533,141.1866,219.2141,0,U,60240,999,11111,.92250486E-4,.1048E-4,0
ROBUSTA-3A (MEDITERRANEE),2024-128J,2026-07-20T09:40:14.460096,15.12028946,.00373845,61.9861,90.7487,134.7257,225.6893,0,U,60243,999,11144,.24198449E-3,.4019E-4,0
LASARSAT,2024-247Q,2026-07-20T00:42:52.000992,15.48248607,.0008052,44.9739,77.3825,196.4765,163.5865,0,U,62391,999,8840,.39312687E-3,.2091E-3,0
CROCUBE,2024-247T,2026-07-19T22:04:41.570112,15.50428783,.00083043,44.9711,74.7596,202.1601,157.8933,0,U,62394,999,8842,.43747887E-3,.25213E-3,0
FORESAIL-1 PRIME,2025-276DS,2026-07-20T04:49:15.901536,15.18962565,.00024593,97.4184,273.8709,32.5574,327.5811,0,U,66778,999,3541,.12196287E-3,.2482E-4,0
KNACKSAT-2,1998-067XZ,2026-07-20T12:04:09.856704,15.62776530,.00079811,51.6270,126.5287,346.1806,13.8969,0,U,67683,999,2548,.39992737E-3,.36378E-3,0
